KUIPER-00044            
1 64505U 25134F   26204.45304230  .00003337  00000+0  46630-3 0  9997
2 64505  51.9008   5.2084 0000662 122.7887 237.3139 14.79955817 60003
KUIPER-00046            
1 64506U 25134G   26204.82711787  .00006042  00000+0  82024-3 0  9991
2 64506  51.9019   1.0310 0000698 294.7987  65.2903 14.79963584 60098
KUIPER-00047            
1 64507U 25134H   26204.75552159  .00001906  00000+0  27901-3 0  9997
2 64507  51.9013 333.8715 0000490 117.1354 242.9659 14.79931169 60461
KUIPER-00048            
1 64508U 25134J   26204.65420331 -.00003252  00000+0 -39787-3 0  9996
2 64508  51.9002 334.3331 0000197  80.4726 279.6259 14.79931165 60457
KUIPER-00049            
1 64509U 25134K   26204.80954365  .00003720  00000+0  51629-3 0  9990
2 64509  51.9013 346.1114 0000480 118.6383 241.4628 14.79964500 60308
KUIPER-00050            
1 64510U 25134L   26204.76090162  .00003736  00000+0  51848-3 0  9993
2 64510  51.9012 328.8490 0000449 115.2059 244.8950 14.79961407 60545
KUIPER-00051            
1 64511U 25134M   26204.71803383  .00004224  00000+0  58249-3 0  9991
2 64511  51.9051 345.2125 0000158 275.5391  84.5553 14.79950855 60300
KUIPER-00053            
1 64513U 25134P   26203.64928135  .00002115  00000+0  29412-3 0  9994
2 64513  51.9024 345.0889 0000617 357.6713   2.4247 14.81698640 60210
KUIPER-00054            
1 64514U 25134Q   26204.78658282 -.00000091  00000+0  17104-4 0  9992
2 64514  51.8972 336.2261 0001201 118.3769 241.7314 14.79924966 60438
KUIPER-00055            
1 64515U 25134R   26204.60147669  .00003227  00000+0  45187-3 0  9990
2 64515  51.9015 289.6797 0000241 132.4178 227.6805 14.79959001 61074
KUIPER-00056            
1 64516U 25134S   26204.40979440  .00003648  00000+0  50698-3 0  9999
2 64516  51.9040 342.9897 0000581 122.0797 238.0222 14.79957967 60310
KUIPER-00057            
1 64517U 25134T   26204.80686147  .00003915  00000+0  54184-3 0  9994
2 64517  51.9007 348.6620 0000479 117.9255 242.1755 14.79961173 60264
KUIPER-00058            
1 64518U 25134U   26204.71096140 -.00000868  00000+0 -84841-4 0  9993
2 64518  51.8987 344.0581 0000561 129.7451 230.3561 14.79930631 60324
KUIPER-00059            
1 64519U 25134V   26204.37871722  .00003677  00000+0  51074-3 0  9993
2 64519  51.9011 340.5674 0000521 134.1734 225.9271 14.79957158 60341
KUIPER-00060            
1 64520U 25134W   26204.75013443  .00003737  00000+0  51853-3 0  9997
2 64520  51.9037 338.9905 0000523 123.0709 237.0303 14.79960963 60382
KUIPER-00061            
1 64521U 25134X   26204.77582218  .00003794  00000+0  52602-3 0  9997
2 64521  51.9024 346.3279 0000650 125.9248 234.1775 14.79967727 60281
