{"fetched_at":"2026-07-24T07:06:06.293Z","source":"https://celestrak.org/NORAD/elements/gp.php?GROUP=kuiper&FORMAT=JSON","constellation":"kuiper","records":[{"OBJECT_NAME":"KUIPER-00044","OBJECT_ID":"2025-134F","EPOCH":"2026-07-23T10:52:22.854720","CLASSIFICATION_TYPE":"U","MEAN_MOTION":14.79955817,"ECCENTRICITY":0.0000662,"INCLINATION":51.9008,"RA_OF_ASC_NODE":5.2084,"ARG_OF_PERICENTER":122.7887,"MEAN_ANOMALY":237.3139,"EPHEMERIS_TYPE":0,"NORAD_CAT_ID":64505,"ELEMENT_SET_NO":999,"REV_AT_EPOCH":6000,"BSTAR":0.0004663,"MEAN_MOTION_DOT":0.00003337,"MEAN_MOTION_DDOT":0},{"OBJECT_NAME":"KUIPER-00046","OBJECT_ID":"2025-134G","EPOCH":"2026-07-23T19:51:02.983968","CLASSIFICATION_TYPE":"U","MEAN_MOTION":14.79963584,"ECCENTRICITY":0.0000698,"INCLINATION":51.9019,"RA_OF_ASC_NODE":1.031,"ARG_OF_PERICENTER":294.7987,"MEAN_ANOMALY":65.2903,"EPHEMERIS_TYPE":0,"NORAD_CAT_ID":64506,"ELEMENT_SET_NO":999,"REV_AT_EPOCH":6009,"BSTAR":0.00082024,"MEAN_MOTION_DOT":0.00006042,"MEAN_MOTION_DDOT":0},{"OBJECT_NAME":"KUIPER-00047","OBJECT_ID":"2025-134H","EPOCH":"2026-07-23T18:07:57.065376","CLASSIFICATION_TYPE":"U","MEAN_MOTION":14.79931169,"ECCENTRICITY":0.000049,"INCLINATION":51.9013,"RA_OF_ASC_NODE":333.8715,"ARG_OF_PERICENTER":117.1354,"MEAN_ANOMALY":242.9659,"EPHEMERIS_TYPE":0,"NORAD_CAT_ID":64507,"ELEMENT_SET_NO":999,"REV_AT_EPOCH":6046,"BSTAR":0.00027901,"MEAN_MOTION_DOT":0.00001906,"MEAN_MOTION_DDOT":0},{"OBJECT_NAME":"KUIPER-00048","OBJECT_ID":"2025-134J","EPOCH":"2026-07-23T15:42:03.165984","CLASSIFICATION_TYPE":"U","MEAN_MOTION":14.79931165,"ECCENTRICITY":0.0000197,"INCLINATION":51.9002,"RA_OF_ASC_NODE":334.3331,"ARG_OF_PERICENTER":80.4726,"MEAN_ANOMALY":279.6259,"EPHEMERIS_TYPE":0,"NORAD_CAT_ID":64508,"ELEMENT_SET_NO":999,"REV_AT_EPOCH":6045,"BSTAR":-0.00039787,"MEAN_MOTION_DOT":-0.00003252,"MEAN_MOTION_DDOT":0},{"OBJECT_NAME":"KUIPER-00049","OBJECT_ID":"2025-134K","EPOCH":"2026-07-23T19:25:44.571360","CLASSIFICATION_TYPE":"U","MEAN_MOTION":14.799645,"ECCENTRICITY":0.000048,"INCLINATION":51.9013,"RA_OF_ASC_NODE":346.1114,"ARG_OF_PERICENTER":118.6383,"MEAN_ANOMALY":241.4628,"EPHEMERIS_TYPE":0,"NORAD_CAT_ID":64509,"ELEMENT_SET_NO":999,"REV_AT_EPOCH":6030,"BSTAR":0.00051629,"MEAN_MOTION_DOT":0.0000372,"MEAN_MOTION_DDOT":0},{"OBJECT_NAME":"KUIPER-00050","OBJECT_ID":"2025-134L","EPOCH":"2026-07-23T18:15:41.899968","CLASSIFICATION_TYPE":"U","MEAN_MOTION":14.79961407,"ECCENTRICITY":0.0000449,"INCLINATION":51.9012,"RA_OF_ASC_NODE":328.849,"ARG_OF_PERICENTER":115.2059,"MEAN_ANOMALY":244.895,"EPHEMERIS_TYPE":0,"NORAD_CAT_ID":64510,"ELEMENT_SET_NO":999,"REV_AT_EPOCH":6054,"BSTAR":0.00051848,"MEAN_MOTION_DOT":0.00003736,"MEAN_MOTION_DDOT":0},{"OBJECT_NAME":"KUIPER-00051","OBJECT_ID":"2025-134M","EPOCH":"2026-07-23T17:13:58.122912","CLASSIFICATION_TYPE":"U","MEAN_MOTION":14.79950855,"ECCENTRICITY":0.0000158,"INCLINATION":51.9051,"RA_OF_ASC_NODE":345.2125,"ARG_OF_PERICENTER":275.5391,"MEAN_ANOMALY":84.5553,"EPHEMERIS_TYPE":0,"NORAD_CAT_ID":64511,"ELEMENT_SET_NO":999,"REV_AT_EPOCH":6030,"BSTAR":0.00058249,"MEAN_MOTION_DOT":0.00004224,"MEAN_MOTION_DDOT":0},{"OBJECT_NAME":"KUIPER-00053","OBJECT_ID":"2025-134P","EPOCH":"2026-07-22T15:34:57.908640","CLASSIFICATION_TYPE":"U","MEAN_MOTION":14.8169864,"ECCENTRICITY":0.00006174,"INCLINATION":51.9024,"RA_OF_ASC_NODE":345.0889,"ARG_OF_PERICENTER":357.6713,"MEAN_ANOMALY":2.4247,"EPHEMERIS_TYPE":0,"NORAD_CAT_ID":64513,"ELEMENT_SET_NO":999,"REV_AT_EPOCH":6021,"BSTAR":0.00029411592,"MEAN_MOTION_DOT":0.00002115,"MEAN_MOTION_DDOT":0},{"OBJECT_NAME":"KUIPER-00054","OBJECT_ID":"2025-134Q","EPOCH":"2026-07-23T18:52:40.755648","CLASSIFICATION_TYPE":"U","MEAN_MOTION":14.79924966,"ECCENTRICITY":0.0001201,"INCLINATION":51.8972,"RA_OF_ASC_NODE":336.2261,"ARG_OF_PERICENTER":118.3769,"MEAN_ANOMALY":241.7314,"EPHEMERIS_TYPE":0,"NORAD_CAT_ID":64514,"ELEMENT_SET_NO":999,"REV_AT_EPOCH":6043,"BSTAR":0.000017104,"MEAN_MOTION_DOT":-9.1e-7,"MEAN_MOTION_DDOT":0},{"OBJECT_NAME":"KUIPER-00055","OBJECT_ID":"2025-134R","EPOCH":"2026-07-23T14:26:07.586016","CLASSIFICATION_TYPE":"U","MEAN_MOTION":14.79959001,"ECCENTRICITY":0.0000241,"INCLINATION":51.9015,"RA_OF_ASC_NODE":289.6797,"ARG_OF_PERICENTER":132.4178,"MEAN_ANOMALY":227.6805,"EPHEMERIS_TYPE":0,"NORAD_CAT_ID":64515,"ELEMENT_SET_NO":999,"REV_AT_EPOCH":6107,"BSTAR":0.00045187,"MEAN_MOTION_DOT":0.00003227,"MEAN_MOTION_DDOT":0},{"OBJECT_NAME":"KUIPER-00056","OBJECT_ID":"2025-134S","EPOCH":"2026-07-23T09:50:06.236160","CLASSIFICATION_TYPE":"U","MEAN_MOTION":14.79957967,"ECCENTRICITY":0.0000581,"INCLINATION":51.904,"RA_OF_ASC_NODE":342.9897,"ARG_OF_PERICENTER":122.0797,"MEAN_ANOMALY":238.0222,"EPHEMERIS_TYPE":0,"NORAD_CAT_ID":64516,"ELEMENT_SET_NO":999,"REV_AT_EPOCH":6031,"BSTAR":0.00050698,"MEAN_MOTION_DOT":0.00003648,"MEAN_MOTION_DDOT":0},{"OBJECT_NAME":"KUIPER-00057","OBJECT_ID":"2025-134T","EPOCH":"2026-07-23T19:21:52.831008","CLASSIFICATION_TYPE":"U","MEAN_MOTION":14.79961173,"ECCENTRICITY":0.0000479,"INCLINATION":51.9007,"RA_OF_ASC_NODE":348.662,"ARG_OF_PERICENTER":117.9255,"MEAN_ANOMALY":242.1755,"EPHEMERIS_TYPE":0,"NORAD_CAT_ID":64517,"ELEMENT_SET_NO":999,"REV_AT_EPOCH":6026,"BSTAR":0.00054184,"MEAN_MOTION_DOT":0.00003915,"MEAN_MOTION_DDOT":0},{"OBJECT_NAME":"KUIPER-00058","OBJECT_ID":"2025-134U","EPOCH":"2026-07-23T17:03:47.064960","CLASSIFICATION_TYPE":"U","MEAN_MOTION":14.79930631,"ECCENTRICITY":0.0000561,"INCLINATION":51.8987,"RA_OF_ASC_NODE":344.0581,"ARG_OF_PERICENTER":129.7451,"MEAN_ANOMALY":230.3561,"EPHEMERIS_TYPE":0,"NORAD_CAT_ID":64518,"ELEMENT_SET_NO":999,"REV_AT_EPOCH":6032,"BSTAR":-0.000084841,"MEAN_MOTION_DOT":-0.00000868,"MEAN_MOTION_DDOT":0},{"OBJECT_NAME":"KUIPER-00059","OBJECT_ID":"2025-134V","EPOCH":"2026-07-23T09:05:21.167808","CLASSIFICATION_TYPE":"U","MEAN_MOTION":14.79957158,"ECCENTRICITY":0.0000521,"INCLINATION":51.9011,"RA_OF_ASC_NODE":340.5674,"ARG_OF_PERICENTER":134.1734,"MEAN_ANOMALY":225.9271,"EPHEMERIS_TYPE":0,"NORAD_CAT_ID":64519,"ELEMENT_SET_NO":999,"REV_AT_EPOCH":6034,"BSTAR":0.00051074,"MEAN_MOTION_DOT":0.00003677,"MEAN_MOTION_DDOT":0},{"OBJECT_NAME":"KUIPER-00060","OBJECT_ID":"2025-134W","EPOCH":"2026-07-23T18:00:11.614752","CLASSIFICATION_TYPE":"U","MEAN_MOTION":14.79960963,"ECCENTRICITY":0.0000523,"INCLINATION":51.9037,"RA_OF_ASC_NODE":338.9905,"ARG_OF_PERICENTER":123.0709,"MEAN_ANOMALY":237.0303,"EPHEMERIS_TYPE":0,"NORAD_CAT_ID":64520,"ELEMENT_SET_NO":999,"REV_AT_EPOCH":6038,"BSTAR":0.00051853,"MEAN_MOTION_DOT":0.00003737,"MEAN_MOTION_DDOT":0},{"OBJECT_NAME":"KUIPER-00061","OBJECT_ID":"2025-134X","EPOCH":"2026-07-23T18:37:11.036352","CLASSIFICATION_TYPE":"U","MEAN_MOTION":14.79967727,"ECCENTRICITY":0.000065,"INCLINATION":51.9024,"RA_OF_ASC_NODE":346.3279,"ARG_OF_PERICENTER":125.9248,"MEAN_ANOMALY":234.1775,"EPHEMERIS_TYPE":0,"NORAD_CAT_ID":64521,"ELEMENT_SET_NO":999,"REV_AT_EPOCH":6028,"BSTAR":0.00052602,"MEAN_MOTION_DOT":0.00003794,"MEAN_MOTION_DDOT":0}]}
